1 45674U 20035T   23362.47501361  .00006221  00000-0  43618-3 0  9995
2 45674  53.0547  67.9042 0001038 101.8017 258.3088 15.06400472197796
1 45674U 20035T   23362.47501361  .00006221  00000-0  43618-3 0  9995
2 45674  53.0547  67.9042 0001038 101.8017 258.3088 15.06400472197426
1 45674U 20035T   23363.40386850  .00007517  00000-0  52286-3 0  9993
2 45674  53.0541  63.7319 0001081  84.4768 275.6344 15.06407699197939
1 45674U 20035T   23363.40386850  .00007517  00000-0  52286-3 0  9993
2 45674  53.0541  63.7319 0001081  84.4768 275.6344 15.06407699197568
1 45674U 20035T   23364.46542910 -.00008890  00000-0 -57913-3 0  9990
2 45674  53.0549  58.9701 0002098 158.0929 202.0150 15.06367371198093
1 45674U 20035T   23364.46542910 -.00008890  00000-0 -57913-3 0  9990
2 45674  53.0549  58.9701 0002098 158.0929 202.0150 15.06367371197722
